*******************************************************************************
 Revised: September 30, 2021           Uranus                               799
 
 PHYSICAL DATA:
  Mass x10^24 (kg)      = 86.813          Density (g/cm^3)       =  1.271
  Equat. radius (1 bar) = 25559+-4 km     Polar radius (km)      = 24973+-20
  Vol. Mean Radius (km) = 25362+-12       Flattening             =  0.02293
  Geometric Albedo      = 0.51
  Sid. rot. period (III)= 17.24+-0.01 h   Sid. rot. rate (rad/s) = -0.000101237
  Mean solar day, h     =~17.24           Rocky core mass (Mc/M) =  0.0012        
  GM (km^3/s^2)         = 5793951.256     GM 1-sigma (km^3/s^2)  = +-4.3 
  Equ. grav, ge (m/s^2) =  8.87           Pol. grav, gp (m/s^2)  =   9.19+-0.02
  Visual magnitude V(1,0)= -7.11
  Vis. mag. (opposition)=  +5.52          Obliquity to orbit     = 97.77 deg
  Sidereal orbit period = 84.0120465 y    Sidereal orbit period  = 30685.4 d
  Mean daily motion     = 0.01176904 dg/d Mean orbit velocity    =  6.8 km/s
  Atmos. temp. (1 bar)  =  76+-2 K        Escape speed, km/s     =  21.3           
  Aroche(ice)/Rp        =  2.20           Hill's sphere rad., Rp = 2700
                                 Perihelion   Aphelion    Mean
  Solar Constant (W/m^2)         4.09         3.39        3.71
  Maximum Planetary IR (W/m^2)   0.72         0.55        0.63
  Minimum Planetary IR (W/m^2)   0.72         0.55        0.63
*******************************************************************************


*******************************************************************************
Ephemeris / WWW_USER Sun Nov 14 18:26:34 2021 Pasadena, USA      / Horizons
*******************************************************************************
Target body name: Uranus (799)                    {source: ura116}
Center body name: Sun (10)                        {source: ura116}
Center-site name: BODY CENTER
*******************************************************************************
Start time      : A.D. 1900-Jan-01 00:00:00.0000 TDB
Stop  time      : A.D. 2099-Jan-01 00:00:00.0000 TDB
Step-size       : 72000 minutes
*******************************************************************************
Center geodetic : 0.00000000,0.00000000,0.0000000 {E-lon(deg),Lat(deg),Alt(km)}
Center cylindric: 0.00000000,0.00000000,0.0000000 {E-lon(deg),Dxy(km),Dz(km)}
Center radii    : 696000.0 x 696000.0 x 696000.0 k{Equator, meridian, pole}    
Output units    : AU-D
Output type     : GEOMETRIC cartesian states
Output format   : 2 (position and velocity)
Reference frame : ICRF
*******************************************************************************
JDTDB
   X     Y     Z
   VX    VY    VZ
*******************************************************************************
$$SOE
2452970.500000000 = A.D. 2003-Nov-27 00:00:00.0000 TDB 
 X = 1.765685602583611E+01 Y =-8.580109332397935E+00 Z =-4.007610386020513E+00
 VX= 1.825385748477665E-03 VY= 3.010960027688391E-03 VZ= 1.293084378200681E-03
2453020.500000000 = A.D. 2004-Jan-16 00:00:00.0000 TDB 
 X = 1.774731816348824E+01 Y =-8.429173575331555E+00 Z =-3.942777257994273E+00
 VX= 1.793134342552512E-03 VY= 3.026384524422109E-03 VZ= 1.300275413486161E-03
2453070.500000000 = A.D. 2004-Mar-06 00:00:00.0000 TDB 
 X = 1.783616941884369E+01 Y =-8.277475286222920E+00 Z =-3.877587259858367E+00
 VX= 1.760901034050213E-03 VY= 3.041525442305966E-03 VZ= 1.307228979334775E-03
2453120.500000000 = A.D. 2004-Apr-25 00:00:00.0000 TDB 
 X = 1.792340651819137E+01 Y =-8.125027365770126E+00 Z =-3.812045939600614E+00
 VX= 1.728737554629566E-03 VY= 3.056381681319491E-03 VZ= 1.314238988728920E-03
2453170.500000000 = A.D. 2004-Jun-14 00:00:00.0000 TDB 
 X = 1.800902461934581E+01 Y =-7.971837766590551E+00 Z =-3.746157471661238E+00
 VX= 1.696176733424729E-03 VY= 3.071105110475279E-03 VZ= 1.321320168566914E-03
2453220.500000000 = A.D. 2004-Aug-03 00:00:00.0000 TDB 
 X = 1.809301299506297E+01 Y =-7.817916795374863E+00 Z =-3.679926113487005E+00
 VX= 1.663238669124772E-03 VY= 3.085663607451172E-03 VZ= 1.328065557731357E-03
2453270.500000000 = A.D. 2004-Sep-22 00:00:00.0000 TDB 
 X = 1.817536026179356E+01 Y =-7.663279697004995E+00 Z =-3.613357489401620E+00
 VX= 1.630387297139232E-03 VY= 3.099845448557191E-03 VZ= 1.334514650680433E-03
2453320.500000000 = A.D. 2004-Nov-11 00:00:00.0000 TDB 
 X = 1.825605987734440E+01 Y =-7.507944128398910E+00 Z =-3.546459663134478E+00
 VX= 1.597608965743342E-03 VY= 3.113608918171004E-03 VZ= 1.341099328909932E-03
2453370.500000000 = A.D. 2004-Dec-31 00:00:00.0000 TDB 
 X = 1.833510945705505E+01 Y =-7.351923115838303E+00 Z =-3.479239193137597E+00
 VX= 1.564476700447118E-03 VY= 3.127170668130944E-03 VZ= 1.347707254750514E-03
2453420.500000000 = A.D. 2005-Feb-19 00:00:00.0000 TDB 
 X = 1.841250465113026E+01 Y =-7.195227234169872E+00 Z =-3.411700129501456E+00
 VX= 1.531153921902900E-03 VY= 3.140624305999205E-03 VZ= 1.353957107557024E-03
2453470.500000000 = A.D. 2005-Apr-10 00:00:00.0000 TDB 
 X = 1.848823553750311E+01 Y =-7.037868611795043E+00 Z =-3.343846764296975E+00
 VX= 1.497922577814825E-03 VY= 3.153725053401249E-03 VZ= 1.360076931013565E-03
2453520.500000000 = A.D. 2005-May-30 00:00:00.0000 TDB 
 X = 1.856229459512002E+01 Y =-6.879861731552696E+00 Z =-3.275686097210968E+00
 VX= 1.464512099730965E-03 VY= 3.166476161701803E-03 VZ= 1.366344297032202E-03
2453570.500000000 = A.D. 2005-Jul-19 00:00:00.0000 TDB 
 X = 1.863467783059285E+01 Y =-6.721220454999986E+00 Z =-3.207224791535353E+00
 VX= 1.430761388884169E-03 VY= 3.179082478700634E-03 VZ= 1.372367739673956E-03
2453620.500000000 = A.D. 2005-Sep-07 00:00:00.0000 TDB 
 X = 1.870537953774306E+01 Y =-6.561955169665838E+00 Z =-3.138466499013955E+00
 VX= 1.397006040556645E-03 VY= 3.191518255173277E-03 VZ= 1.378026019966064E-03
2453670.500000000 = A.D. 2005-Oct-27 00:00:00.0000 TDB 
 X = 1.877438854268846E+01 Y =-6.402078597097764E+00 Z =-3.069416378299005E+00
 VX= 1.363329617110431E-03 VY= 3.203541569221613E-03 VZ= 1.383756398648846E-03
2453720.500000000 = A.D. 2005-Dec-16 00:00:00.0000 TDB 
 X = 1.884169545669178E+01 Y =-6.241607412724163E+00 Z =-3.000082376241703E+00
 VX= 1.329265800608597E-03 VY= 3.215165167420527E-03 VZ= 1.389584683411264E-03
2453770.500000000 = A.D. 2006-Feb-04 00:00:00.0000 TDB 
 X = 1.890729838858736E+01 Y =-6.080559551043424E+00 Z =-2.930472363429689E+00
 VX= 1.294952100742648E-03 VY= 3.226614050955286E-03 VZ= 1.395064380120063E-03
2453820.500000000 = A.D. 2006-Mar-26 00:00:00.0000 TDB 
 X = 1.897119581539923E+01 Y =-5.918947087642103E+00 Z =-2.860590848035301E+00
 VX= 1.260816574596537E-03 VY= 3.237872171426091E-03 VZ= 1.400236368298725E-03
2453870.500000000 = A.D. 2006-May-15 00:00:00.0000 TDB 
 X = 1.903338130041568E+01 Y =-5.756778424386456E+00 Z =-2.790441739719201E+00
 VX= 1.226615498380153E-03 VY= 3.248862781524852E-03 VZ= 1.405548325416076E-03
2453920.500000000 = A.D. 2006-Jul-04 00:00:00.0000 TDB 
 X = 1.909384403124611E+01 Y =-5.594066137190809E+00 Z =-2.720030876368870E+00
 VX= 1.192003095279314E-03 VY= 3.259555058682680E-03 VZ= 1.410832501326826E-03
2453970.500000000 = A.D. 2006-Aug-23 00:00:00.0000 TDB 
 X = 1.915257613770504E+01 Y =-5.430826991074846E+00 Z =-2.649364981011047E+00
 VX= 1.157223336065488E-03 VY= 3.269963852908233E-03 VZ= 1.415759724872915E-03
2454020.500000000 = A.D. 2006-Oct-12 00:00:00.0000 TDB 
 X = 1.920957311207907E+01 Y =-5.267077517336613E+00 Z =-2.578451067125592E+00
 VX= 1.122598347561162E-03 VY= 3.280043214456100E-03 VZ= 1.420585026284636E-03
2454070.500000000 = A.D. 2006-Dec-01 00:00:00.0000 TDB 
 X = 1.926483027664449E+01 Y =-5.102829763813674E+00 Z =-2.507294937090795E+00
 VX= 1.087791555136657E-03 VY= 3.289825483704791E-03 VZ= 1.425515620768609E-03
2454120.500000000 = A.D. 2007-Jan-20 00:00:00.0000 TDB 
 X = 1.931834087673478E+01 Y =-4.938097248270674E+00 Z =-2.435902436166272E+00
 VX= 1.052624081188057E-03 VY= 3.299385505433928E-03 VZ= 1.430270051451612E-03
2454170.500000000 = A.D. 2007-Mar-11 00:00:00.0000 TDB 
 X = 1.937009750900581E+01 Y =-4.772896316333426E+00 Z =-2.364279875466381E+00
 VX= 1.017424220197896E-03 VY= 3.308622420247826E-03 VZ= 1.434693167451052E-03
2454220.500000000 = A.D. 2007-Apr-30 00:00:00.0000 TDB 
 X = 1.942009708790266E+01 Y =-4.607242835973234E+00 Z =-2.292434345735211E+00
 VX= 9.823580636632869E-04 VY= 3.317541688885550E-03 VZ= 1.439030808316255E-03
2454270.500000000 = A.D. 2007-Jun-19 00:00:00.0000 TDB 
 X = 1.946833660089694E+01 Y =-4.441148756896774E+00 Z =-2.220371569846192E+00
 VX= 9.471764335089967E-04 VY= 3.326221337009674E-03 VZ= 1.443393031227448E-03
2454320.500000000 = A.D. 2007-Aug-08 00:00:00.0000 TDB 
 X = 1.951480870363754E+01 Y =-4.274624412372531E+00 Z =-2.148095733512185E+00
 VX= 9.117048361869175E-04 VY= 3.334673243707679E-03 VZ= 1.447661615570722E-03
2454370.500000000 = A.D. 2007-Sep-27 00:00:00.0000 TDB 
 X = 1.955950220217512E+01 Y =-4.107685609196674E+00 Z =-2.075613328214650E+00
 VX= 8.760401753936145E-04 VY= 3.342774330625795E-03 VZ= 1.451729528149896E-03
2454420.500000000 = A.D. 2007-Nov-16 00:00:00.0000 TDB 
 X = 1.960241006151129E+01 Y =-3.940351619284071E+00 Z =-2.002932854172208E+00
 VX= 8.402748655211731E-04 VY= 3.350481625748976E-03 VZ= 1.455596637214207E-03
2454470.500000000 = A.D. 2008-Jan-05 00:00:00.0000 TDB 
 X = 1.964353166083312E+01 Y =-3.772640497876205E+00 Z =-1.930062324172130E+00
 VX= 8.045595646974898E-04 VY= 3.357906665822867E-03 VZ= 1.459294116245743E-03
2454520.500000000 = A.D. 2008-Feb-24 00:00:00.0000 TDB 
 X = 1.968286485603592E+01 Y =-3.604564523818715E+00 Z =-1.857006914847858E+00
 VX= 7.687850989096213E-04 VY= 3.365083707863786E-03 VZ= 1.462914388191007E-03
2454570.500000000 = A.D. 2008-Apr-14 00:00:00.0000 TDB 
 X = 1.972040334231029E+01 Y =-3.436135657164431E+00 Z =-1.783771884274823E+00
 VX= 7.327883896199804E-04 VY= 3.372001341716791E-03 VZ= 1.466460447250320E-03
